EYESAT A (AO-27)        
1 22825U 93061C   26188.13790326  .00000072  00000+0  44304-4 0  9991
2 22825  98.6871 255.5434 0009160  47.8200 312.3759 14.30947627709857
ITAMSAT (IO-26)         
1 22826U 93061D   26187.69194508  .00000089  00000+0  50471-4 0  9992
2 22826  98.6820 255.0170 0009437  33.2338 326.9435 14.31375033710101
RADIO ROSTO (RS15)      
1 23439U 94085A   26188.42578286 -.00000037  00000+0  16096-3 0  9999
2 23439  64.8166 270.4858 0156635   0.1409 359.9534 11.27583445298184
JAS-2 (FO-29)           
1 24278U 96046B   26187.82950257 -.00000018  00000+0  15885-4 0  9990
2 24278  98.5225  34.0093 0350676  45.6079 317.3214 13.53275038475827
FORTE                   
1 24920U 97047A   26188.40906633  .00000135  00000+0  77621-4 0  9995
2 24920  69.9546 328.3436 0024505 252.9124 106.9314 14.27953273501573
TECHSAT 1B (GO-32)      
1 25397U 98043D   26187.94313304  .00000041  00000+0  37960-4 0  9994
2 25397  99.0077 181.2008 0001943 128.2186 231.9167 14.24432203454147
ISS (ZARYA)             
1 25544U 98067A   26188.50835633  .00005806  00000+0  11369-3 0  9999
2 25544  51.6304 199.5144 0006687 267.6545  92.3678 15.48933372574901
IMAGE                   
1 26113U 00017A   26187.24790595 -.00000011  00000+0  00000+0 0  9997
2 26113  94.2437 315.6222 7418847 285.6487   9.6557  1.68666489161828
CLUSTER II-FM7 (SAMBA)  
1 26410U 00041A   26190.44939576  .00010356  00000+0  00000+0 0  9996
2 26410 149.8605  54.9301 9081563 272.3489 359.6364  0.44874124 20414
CLUSTER II-FM8 (TANGO)  
1 26464U 00045B   26186.44807692  .00007114  00000+0  00000+0 0  9995
2 26464 150.0908  55.3344 9082146 272.5670   2.3329  0.44420952 20393
ODIN                    
1 26702U 01007A   26187.98430022  .00262243  00000+0  10929-2 0  9998
2 26702  97.3761 230.3091 0005299 141.5779 218.5869 15.85006600392520
OMNI-M1                 
1 26857U 01026A   26183.00645506  .00000007  00000+0  00000+0 0  9998
2 26857  44.8270 241.8483 0013799  56.1769 304.0224  3.92402003206150
PCSAT (NO-44)           
1 26931U 01043C   26187.71597948  .00000106  00000+0  70598-4 0  9992
2 26931  67.0487 193.7609 0005989 265.9645  94.0772 14.31962724293246
PROBA-1                 
1 26958U 01049B   26188.51369145  .00002776  00000+0  18060-3 0  9992
2 26958  97.9598 197.7565 0056023  55.0591 305.5880 15.07590104346688
SAUDISAT 1C (SO-50)     
1 27607U 02058C   26188.11499616  .00000749  00000+0  10582-3 0  9997
2 27607  64.5520  67.3282 0074752 258.7570 100.5128 14.83088031267416
CORIOLIS                
1 27640U 03001A   26187.92736674  .00000080  00000+0  57983-4 0  9994
2 27640  98.7129 194.5108 0014560 151.8272 208.3695 14.19950145217021
CUTE-1 (CO-55)          
1 27844U 03031E   26188.47926413  .00000234  00000+0  12008-3 0  9995
2 27844  98.6738 196.7829 0010633 122.6531 237.5675 14.24348198194567
CUBESAT XI-IV (CO-57)   
1 27848U 03031J   26188.47791579  .00000195  00000+0  10456-3 0  9993
2 27848  98.6771 196.4779 0010210 139.6847 220.5090 14.23631593194261
MOZHAETS 4 (RS22)       
1 27939U 03042A   26188.52074782  .00000902  00000+0  14703-3 0  9997
2 27939  98.3478  13.4544 0010656 198.2557 246.5715 14.73506306218542
SAUDISAT 2              
1 28371U 04025F   26187.94878642  .00000213  00000+0  58559-4 0  9995
2 28371  98.5514 188.4419 0023655 234.4243 125.4749 14.56695117168623
